QUETZSAT 1              
1 37826U 11054A   16221.51215340 -.00000257  00000-0  00000+0 0  9994
2 37826   0.0174 326.1264 0002417 171.4443 287.2453  1.00270789 18006
INTELSAT 18 (IS-18)     
1 37834U 11056A   16220.80732447  .00000036  00000-0  00000+0 0  9992
2 37834   0.0158  93.6411 0001957  33.8006 299.9172  1.00270962 17753
EUTELSAT 16A            
1 37836U 11057A   16221.22137678  .00000088  00000-0  00000+0 0  9994
2 37836   0.0638   2.1333 0004065 138.0323 272.6659  1.00270581 17697
VIASAT-1                
1 37843U 11059A   16221.24902189 -.00000039  00000-0  00000+0 0  9990
2 37843   0.0202  98.1135 0002389  31.4561 162.1551  1.00270316 18178
ASIASAT 7               
1 37933U 11069A   16221.57663113 -.00000349  00000-0  00000+0 0  9992
2 37933   0.0501 276.9567 0001854 183.7128 169.9128  1.00273842 17363
LUCH 5A                 
1 37951U 11074B   16220.74878141 -.00000062  00000-0  00000+0 0  9997
2 37951   1.6804 210.0781 0003429 274.6664 268.4535  1.00272152 17087
NIGCOMSAT 1R            
1 38014U 11077A   16220.85257603  .00000128  00000-0  00000+0 0  9999
2 38014   0.0268 115.6651 0003265 145.8168  44.7092  1.00270849 16923
FENGYUN 2F              
1 38049U 12002A   16220.86467455 -.00000372  00000-0  00000+0 0  9997
2 38049   1.0827  76.2634 0003283 180.3266 123.2392  1.00260676 16786
SES-4                   
1 38087U 12007A   16221.11065986 -.00000184  00000-0  00000+0 0  9997
2 38087   0.0221 350.2128 0003228 123.0604 221.6157  1.00274810 16380
BEIDOU G5               
1 38091U 12008A   16220.25048083  .00000036  00000-0  00000+0 0  9991
2 38091   1.7100  49.3844 0002861 172.3314 243.4361  1.00276622 16378
INTELSAT 22 (IS-22)     
1 38098U 12011A   16219.92232031 -.00000078  00000-0  00000-0 0  9990
2 38098   0.0194  21.3428 0001947 116.3245 222.3326  1.00271846 15721
APSTAR 7                
1 38107U 12013A   16220.06754972 -.00000120  00000-0  00000+0 0  9990
2 38107   0.0262  76.7825 0002244  57.6762 282.3584  1.00271794 16067
YAHSAT 1B               
1 38245U 12016A   16218.61758563  .00000104  00000-0  00000+0 0  9995
2 38245   0.0180 105.9906 0000995 321.1256 157.3733  1.00273080 15798
JCSAT-13                
1 38331U 12023A   16219.77854640 -.00000376  00000-0  00000-0 0  9993
2 38331   0.0090  71.0275 0001484  29.3063 259.6675  1.00272161 15412
VINASAT-2               
1 38332U 12023B   16221.50997178 -.00000344  00000-0  00000+0 0  9996
2 38332   0.0425 280.1730 0001931 217.0401 135.6469  1.00273158 15515
NIMIQ 6                 
1 38342U 12026A   16220.37448031 -.00000192  00000-0  00000+0 0  9994
2 38342   0.0190 285.6165 0001862 199.5832 234.8177  1.00270615 15492
CHINASAT 2A (ZX 2A)     
1 38352U 12028A   16220.76970014 -.00000310  00000-0  00000+0 0  9993
2 38352   0.0469 245.6561 0000741  37.2008  49.1832  1.00274552 15530
INTELSAT 19 (IS-19)     
1 38356U 12030A   16219.66220191 -.00000077  00000-0  00000+0 0  9991
2 38356   0.0251 317.8582 0002953 184.8947 217.2519  1.00271718 15403
ECHOSTAR 17             
1 38551U 12035A   16219.42150889 -.00000096  00000-0  00000-0 0  9995
2 38551   0.0160  84.7121 0002134  47.7649 227.5248  1.00272572 14967
METEOSAT-10 (MSG-3)     
1 38552U 12035B   16221.11930631 -.00000020  00000-0  00000+0 0  9992
2 38552   0.5117  13.6618 0001643 189.2418 157.0777  1.00272686 15126
SES-5                   
1 38652U 12036A   16221.09236728  .00000018  00000-0  00000+0 0  9993
2 38652   0.0491 264.9790 0001837 232.5858 217.6807  1.00273512 14961
TIANLIAN 1-03           
1 38730U 12040A   16220.09257613  .00000053  00000-0  00000+0 0  9999
2 38730   0.1801 270.6105 0006666 358.7552  90.5429  1.00273545 14880
INTELSAT 20 (IS-20)     
1 38740U 12043A   16219.72822981 -.00000044  00000-0  00000+0 0  9998
2 38740   0.0065  99.0974 0001201 280.8135 266.4242  1.00272680 14719
HYLAS 2                 
1 38741U 12043B   16221.03331993  .00000138  00000-0  00000+0 0  9997
2 38741   0.0157  99.8228 0001676  36.5939 223.5965  1.00272252 14751
INTELSAT 21 (IS-21)     
1 38749U 12045A   16219.28546235 -.00000306  00000-0  00000+0 0  9996
2 38749   0.0207  55.9127 0002417  78.8772 225.2133  1.00272836 14523
ASTRA 2F                
1 38778U 12051A   16221.04121839  .00000133  00000-0  00000+0 0  9998
2 38778   0.1041 253.6960 0002831 290.9959 175.2930  1.00270465 14196
GSAT-10                 
1 38779U 12051B   16219.89207166 -.00000185  00000-0  00000+0 0  9995
2 38779   0.0781 267.3782 0001813 169.3387 283.2879  1.00272642 14184
INTELSAT 23 (IS-23)     
1 38867U 12057A   16220.26915227 -.00000303  00000-0  00000+0 0  9998
2 38867   0.0052 123.2011 0001741  13.8415 222.9711  1.00269016 14000
BEIDOU G6               
1 38953U 12059A   16220.25924483 -.00000194  00000-0  10000-3 0  9992
2 38953   1.0101  78.8589 0005043 135.0488 279.5254  1.00276214 13943
LUCH 5B                 
1 38977U 12061A   16221.35283449 -.00000146  00000-0  00000+0 0  9995
2 38977   2.9175  76.8196 0003157  56.8089 294.4154  1.00271033 14077
YAMAL 300K              
1 38978U 12061B   16221.52728716  .00000056  00000-0  00000+0 0  9995
2 38978   0.0254 165.3210 0000805 106.7676  58.1224  1.00271812 13774
STAR ONE C3             
1 38991U 12062A   16221.24517508 -.00000265  00000-0  00000+0 0  9998
2 38991   0.0158 107.0055 0001712  47.3778 176.0589  1.00271075 13756
EUTELSAT 21B            
1 38992U 12062B   16221.05951295  .00000113  00000-0  00000+0 0  9994
2 38992   0.0643   8.4691 0002063 136.4286 215.1037  1.00270156 13774
ECHOSTAR 16             
1 39008U 12065A   16219.29518658 -.00000303  00000-0  00000+0 0  9993
2 39008   0.0213  89.6415 0002217  42.5719 227.8054  1.00270732 13690
CHINASAT 12 (ZX 12)     
1 39017U 12067A   16221.52344105 -.00000222  00000-0  00000+0 0  9998
2 39017   0.0165  91.8224 0003066  42.4780  99.0763  1.00273514 13618
EUTELSAT 70B            
1 39020U 12069A   16219.92690653 -.00000062  00000-0  00000+0 0  9999
2 39020   0.0668 336.5228 0002714 149.3628 234.1247  1.00272017 13504
YAMAL 402               
1 39022U 12070A   16220.68478000  .00000069  00000-0  10000-3 0  9999
2 39022   0.0563 267.9408 0002645 197.1041 152.9713  1.00274349 13493
SKYNET 5D               
1 39034U 12075A   16220.83947492  .00000083  00000-0  00000+0 0  9991
2 39034   0.0703 351.9380 0003078 146.8872 172.9393  1.00269420 13411
MEXSAT 3                
1 39035U 12075B   16219.44287883 -.00000046  00000-0  00000+0 0  9998
2 39035   0.0582 247.1330 0002154 241.1362 231.7339  1.00272449 13368
TDRS 11                 
1 39070U 13004A   16218.78633128  .00000075  00000-0  00000+0 0  9994
2 39070   5.7867 329.0436 0008733 279.9379 177.6476  1.00270168 12868
AMAZONAS 3              
1 39078U 13006A   16221.28822597 -.00000298  00000-0  00000+0 0  9991
2 39078   0.0526 252.2570 0003337 281.5155 186.2199  1.00273259 12871
AZERSPACE 1             
1 39079U 13006B   16220.99188504  .00000117  00000-0  00000+0 0  9991
2 39079   0.0167 238.1558 0001342 281.4712 200.3659  1.00269916 12834
EUTELSAT 117 WEST A     
1 39122U 13012A   16221.44291897 -.00000028  00000-0  00000+0 0  9990
2 39122   0.0374 258.3416 0002405 238.0789 223.5871  1.00271373 12375
ANIK G1                 
1 39127U 13014A   16220.41924711 -.00000092  00000-0  00000+0 0  9992
2 39127   0.0105 271.2539 0001045 268.2018 180.5444  1.00269538 12155
CHINASAT 11 (ZX 11)     
1 39157U 13020A   16220.90605054 -.00000308  00000-0  00000+0 0  9992
2 39157   0.0280 259.6113 0000604  61.2167  60.2062  1.00270567 12059
EUTELSAT 7B             
1 39163U 13022A   16219.10542050  .00000026  00000-0  00000-0 0  9994
2 39163   0.0460 341.5875 0002354  50.4532 327.9565  1.00271280 11886
SES-6                   
1 39172U 13026A   16221.17625418 -.00000277  00000-0  00000+0 0  9996
2 39172   0.0388 299.4473 0001892 207.2395 193.3505  1.00272003 11631
IRNSS-1A                
1 39199U 13034A   16220.80130977  .00000084  00000-0  00000+0 0  9999
2 39199  28.3551 120.5272 0017847 172.5676   7.0864  1.00270482 11547
ALPHASAT                
1 39215U 13038A   16219.14558974  .00000117  00000-0  00000+0 0  9995
2 39215   1.3959  31.5700 0001897 104.9992 255.7655  1.00273499 11152
INSAT-3D                
1 39216U 13038B   16220.89186835 -.00000173  00000-0  00000+0 0  9996
2 39216   0.1093 272.6867 0000079  26.3470  60.9526  1.00272994 11208
EUTELSAT 25B            
1 39233U 13044A   16219.05419086  .00000121  00000-0  00000-0 0  9998
2 39233   0.0473  22.0531 0001532 122.9930 214.9470  1.00274318 10527
GSAT-7                  
1 39234U 13044B   16219.91682339 -.00000096  00000-0  00000+0 0  9998
2 39234   0.0982 268.0958 0008746   9.1760  82.6135  1.00272164 10793
AMOS-4                  
1 39237U 13045A   16220.93923693 -.00000009  00000-0  00000+0 0  9991
2 39237   0.0119  75.6756 0000956  83.8168 200.4988  1.00270578 10795
ASTRA 2E                
1 39285U 13056A   16221.04041669  .00000134  00000-0  00000+0 0  9991
2 39285   0.0578  37.7851 0002425 107.5331 214.6853  1.00274008 10498
SIRIUS FM-6             
1 39360U 13058A   16220.44373872 -.00000035  00000-0  00000+0 0  9995
2 39360   0.0162  67.3795 0000257 272.1358  20.4699  1.00271957 10240
RADUGA-1M 3             
1 39375U 13062A   16217.86618456 -.00000064  00000-0  00000-0 0  9991
2 39375   0.0234 142.2806 0002974 348.0883 205.2896  1.00272829  9997
SES-8                   
1 39460U 13071A   16220.85624807 -.00000286  00000-0  00000+0 0  9991
2 39460   0.0132 269.0615 0002576 205.3950 245.5704  1.00269507  9773
INMARSAT 5-F1           
1 39476U 13073A   16221.06299355  .00000012  00000-0  00000+0 0  9996
2 39476   0.0224  96.6496 0000521 247.9595  57.6760  1.00269466  9833
TKSAT-1 (TUPAC KATARI)  
1 39481U 13075A   16221.30618900 -.00000210  00000-0  00000+0 0  9993
2 39481   0.0148 126.6664 0001410  21.1764 192.4326  1.00271165  9748
